STARLINK-3830           
1 52363U 22045AJ  26169.55048204  .00005164  00000+0  34220-3 0  9993
2 52363  53.1601 106.2388 0001286  93.8159 266.2980 15.08852817231012
STARLINK-3820           
1 52364U 22045AK  26169.52194700  .00000327  00000+0  38660-4 0  9993
2 52364  53.1607  96.2782 0001300  89.4297 270.6843 15.08834243231140
STARLINK-3874           
1 52365U 22045AL  26169.80899708 -.00000300  00000+0 -78235-6 0  9992
2 52365  53.1608  95.0743 0001325  86.9868 273.1275 15.08830392231181
STARLINK-3808           
1 52366U 22045AM  26169.52563571 -.00003361  00000+0 -19315-3 0  9999
2 52366  53.1616  96.3528 0001571  83.2699 276.8471 15.08842180231143
STARLINK-3817           
1 52367U 22045AN  26169.53299409  .00002410  00000+0  16949-3 0  9999
2 52367  53.1598  96.3163 0001170  96.8988 263.2136 15.08827300231149
STARLINK-3834           
1 52368U 22045AP  26169.77956076 -.00000045  00000+0  15276-4 0  9992
2 52368  53.1613  95.2064 0001452  90.8842 269.2316 15.08833411231171
STARLINK-3841           
1 52369U 22045AQ  26169.79427340 -.00003979  00000+0 -23190-3 0  9995
2 52369  53.1620  95.1409 0001648 128.0500 232.0641 15.08857294231189
STARLINK-3827           
1 52370U 22045AR  26169.52291991  .00000321  00000+0  38278-4 0  9999
2 52370  53.1608  96.3722 0001328  91.3250 268.7894 15.08832356231141
STARLINK-3798           
1 52371U 22045AS  26169.51923449  .00000499  00000+0  49441-4 0  9999
2 52371  53.1609  96.3881 0001380  91.9113 268.2037 15.08835106231130
STARLINK-3796           
1 52372U 22045AT  26169.51092243 -.00000606  00000+0 -20010-4 0  9992
2 52372  53.1608  96.4129 0001446  87.0338 273.0819 15.08828038231132
STARLINK-3550           
1 52373U 22045AU  26169.83335647  .00042267  00000+0  19652-2 0  9991
2 52373  53.1612  94.6792 0002404  83.4620  73.6059 15.19582563  5842
STARLINK-3762           
1 52374U 22045AV  26169.50355985 -.00000345  00000+0 -35751-5 0  9997
2 52374  53.1606  96.4474 0001397  85.8160 274.2991 15.08828447231148
STARLINK-3785           
1 52375U 22045AW  26169.50724306 -.00001674  00000+0 -87150-4 0  9990
2 52375  53.1613  96.4311 0001302  89.2620 270.8520 15.08818795231147
STARLINK-3805           
1 52377U 22045AY  26169.51830727  .00000424  00000+0  44715-4 0  9998
2 52377  53.1610  96.6029 0001406  95.7332 264.3819 15.08834485231133
STARLINK-3806           
1 52378U 22045AZ  26169.48883480 -.00000241  00000+0  29741-5 0  9990
2 52378  53.1606  96.5142 0001610  78.6444 281.4728 15.08832578231146
STARLINK-3800           
1 52379U 22045BA  26169.49251713 -.00000780  00000+0 -30937-4 0  9997
2 52379  53.1605  96.4980 0001274  85.1397 274.9740 15.08829474231143
STARLINK-3793           
1 52380U 22045BB  26169.73632214 -.00000375  00000+0 -54400-5 0  9997
2 52380  53.1609  85.4323 0001428  96.9751 263.1403 15.08830631231315
STARLINK-3799           
1 52382U 22045BD  26169.83335647  .00057717  00000+0  18283-2 0  9996
2 52382  53.2152  88.2711 0002084  63.3107 318.3006 15.32204617  5873
STARLINK-3811           
1 52383U 22045BE  26169.76943969 -.00003090  00000+0 -17616-3 0  9998
2 52383  53.1598  85.2821 0001267  74.4842 285.6289 15.08829051231325
BRO-6                   
1 52422U 22047AE  26169.81562464  .00028466  00000+0  49697-3 0  9993
2 52422  97.3398 260.9019 0004917  74.1426 286.0368 15.50641672231408
JILIN-1 KUANFU 01C      
1 52443U 22048A   26169.81750944  .00002341  00000+0  14973-3 0  9992
2 52443  97.5258 246.9664 0017070 318.2051  41.7874 15.09473200227449
JILIN-1 GAOFEN 3D27     
1 52444U 22048B   26169.80651604  .00104153  00000+0  67649-3 0  9997
2 52444  97.5720 283.8887 0001083 355.6121   4.5134 15.75668251229736
JILIN-1 GAOFEN 3D28     
1 52445U 22048C   26169.73928118  .00128466  00000+0  72552-3 0  9999
2 52445  97.5658 283.9713 0000621 228.0135 132.1078 15.78772370229771
JILIN-1 GAOFEN 3D29     
1 52446U 22048D   26169.79440579  .00106157  00000+0  68461-3 0  9993
2 52446  97.5714 284.2342 0001263 252.6438 107.4688 15.75826170229754
JILIN-1 GAOFEN 3D30     
1 52447U 22048E   26169.85577878  .00521303  12702-3  85032-3 0  9997
2 52447  97.5648 288.2148 0006924 262.9012  97.1480 16.03290018230036
JILIN-1 GAOFEN 3D31     
1 52448U 22048F   26169.83022228  .00145104  00000+0  70893-3 0  9994
2 52448  97.5691 285.2868 0002178 222.0295 138.0806 15.81917279229842
STARLINK-3909           
1 52452U 22049B   26169.73904641  .00001689  00000+0  12417-3 0  9994
2 52452  53.1614 335.2579 0001224  87.0463 273.0669 15.08847842227361
STARLINK-3872           
1 52453U 22049C   26169.72067737  .00000546  00000+0  52405-4 0  9993
2 52453  53.1616 335.4691 0001619  86.3904 273.7273 15.08834759227362
STARLINK-3888           
1 52454U 22049D   26169.85683459  .00000226  00000+0  32305-4 0  9995
2 52454  53.1598 334.8561 0001193  88.2843 271.8285 15.08835460227385
STARLINK-3890           
1 52455U 22049E   26169.78419168  .00000040  00000+0  20572-4 0  9999
2 52455  53.1603 335.1837 0001114  95.2668 264.8450 15.08836715227378
