OBJECT_NAME,OBJECT_ID,EPOCH,MEAN_MOTION,ECCENTRICITY,INCLINATION,RA_OF_ASC_NODE,ARG_OF_PERICENTER,MEAN_ANOMALY,EPHEMERIS_TYPE,CLASSIFICATION_TYPE,NORAD_CAT_ID,ELEMENT_SET_NO,REV_AT_EPOCH,BSTAR,MEAN_MOTION_DOT,MEAN_MOTION_DDOT
STARLINK-3830,2022-045AJ,2026-06-18T13:12:41.648256,15.08852817,.0001286,53.1601,106.2388,93.8159,266.2980,0,U,52363,999,23101,.3422E-3,.5164E-4,0
STARLINK-3820,2022-045AK,2026-06-18T12:31:36.220800,15.08834243,.00013,53.1607,96.2782,89.4297,270.6843,0,U,52364,999,23114,.3866E-4,.327E-5,0
STARLINK-3874,2022-045AL,2026-06-18T19:24:57.347712,15.08830392,.0001325,53.1608,95.0743,86.9868,273.1275,0,U,52365,999,23118,-.78235E-6,-.3E-5,0
STARLINK-3808,2022-045AM,2026-06-18T12:36:54.925344,15.08842180,.0001571,53.1616,96.3528,83.2699,276.8471,0,U,52366,999,23114,-.19315E-3,-.3361E-4,0
STARLINK-3817,2022-045AN,2026-06-18T12:47:30.689376,15.08827300,.000117,53.1598,96.3163,96.8988,263.2136,0,U,52367,999,23114,.16949E-3,.241E-4,0
STARLINK-3834,2022-045AP,2026-06-18T18:42:34.049664,15.08833411,.0001452,53.1613,95.2064,90.8842,269.2316,0,U,52368,999,23117,.15276E-4,-.45E-6,0
STARLINK-3841,2022-045AQ,2026-06-18T19:03:45.221760,15.08857294,.0001648,53.1620,95.1409,128.0500,232.0641,0,U,52369,999,23118,-.2319E-3,-.3979E-4,0
STARLINK-3827,2022-045AR,2026-06-18T12:33:00.280224,15.08832356,.0001328,53.1608,96.3722,91.3250,268.7894,0,U,52370,999,23114,.38278E-4,.321E-5,0
STARLINK-3798,2022-045AS,2026-06-18T12:27:41.859936,15.08835106,.000138,53.1609,96.3881,91.9113,268.2037,0,U,52371,999,23113,.49441E-4,.499E-5,0
STARLINK-3796,2022-045AT,2026-06-18T12:15:43.697952,15.08828038,.0001446,53.1608,96.4129,87.0338,273.0819,0,U,52372,999,23113,-.2001E-4,-.606E-5,0
STARLINK-3550,2022-045AU,2026-06-18T20:00:01.999008,15.19582563,.0002404,53.1612,94.6792,83.4620,73.6059,0,U,52373,999,584,.19652E-2,.42267E-3,0
STARLINK-3762,2022-045AV,2026-06-18T12:05:07.571040,15.08828447,.0001397,53.1606,96.4474,85.8160,274.2991,0,U,52374,999,23114,-.35751E-5,-.345E-5,0
STARLINK-3785,2022-045AW,2026-06-18T12:10:25.800384,15.08818795,.0001302,53.1613,96.4311,89.2620,270.8520,0,U,52375,999,23114,-.8715E-4,-.1674E-4,0
STARLINK-3805,2022-045AY,2026-06-18T12:26:21.748128,15.08834485,.0001406,53.1610,96.6029,95.7332,264.3819,0,U,52377,999,23113,.44715E-4,.424E-5,0
STARLINK-3806,2022-045AZ,2026-06-18T11:43:55.326720,15.08832578,.000161,53.1606,96.5142,78.6444,281.4728,0,U,52378,999,23114,.29741E-5,-.241E-5,0
STARLINK-3800,2022-045BA,2026-06-18T11:49:13.480032,15.08829474,.0001274,53.1605,96.4980,85.1397,274.9740,0,U,52379,999,23114,-.30937E-4,-.78E-5,0
STARLINK-3793,2022-045BB,2026-06-18T17:40:18.232896,15.08830631,.0001428,53.1609,85.4323,96.9751,263.1403,0,U,52380,999,23131,-.544E-5,-.375E-5,0
STARLINK-3799,2022-045BD,2026-06-18T20:00:01.999008,15.32204617,.0002084,53.2152,88.2711,63.3107,318.3006,0,U,52382,999,587,.18283E-2,.57717E-3,0
STARLINK-3811,2022-045BE,2026-06-18T18:27:59.589216,15.08829051,.0001267,53.1598,85.2821,74.4842,285.6289,0,U,52383,999,23132,-.17616E-3,-.309E-4,0
BRO-6,2022-047AE,2026-06-18T19:34:29.968896,15.50641672,.0004917,97.3398,260.9019,74.1426,286.0368,0,U,52422,999,23140,.49697E-3,.28466E-3,0
JILIN-1 KUANFU 01C,2022-048A,2026-06-18T19:37:12.815616,15.09473200,.001707,97.5258,246.9664,318.2051,41.7874,0,U,52443,999,22744,.14973E-3,.2341E-4,0
JILIN-1 GAOFEN 3D27,2022-048B,2026-06-18T19:21:22.985856,15.75668251,.0001083,97.5720,283.8887,355.6121,4.5134,0,U,52444,999,22973,.67649E-3,.104153E-2,0
JILIN-1 GAOFEN 3D28,2022-048C,2026-06-18T17:44:33.893952,15.78772370,.0000621,97.5658,283.9713,228.0135,132.1078,0,U,52445,999,22977,.72552E-3,.128466E-2,0
JILIN-1 GAOFEN 3D29,2022-048D,2026-06-18T19:03:56.660256,15.75826170,.0001263,97.5714,284.2342,252.6438,107.4688,0,U,52446,999,22975,.68461E-3,.106157E-2,0
JILIN-1 GAOFEN 3D30,2022-048E,2026-06-18T20:32:19.286592,16.03290018,.0006924,97.5648,288.2148,262.9012,97.1480,0,U,52447,999,23003,.85032E-3,.521303E-2,.12702E-3
JILIN-1 GAOFEN 3D31,2022-048F,2026-06-18T19:55:31.204992,15.81917279,.0002178,97.5691,285.2868,222.0295,138.0806,0,U,52448,999,22984,.70893E-3,.145104E-2,0
STARLINK-3909,2022-049B,2026-06-18T17:44:13.609824,15.08847842,.0001224,53.1614,335.2579,87.0463,273.0669,0,U,52452,999,22736,.12417E-3,.1689E-4,0
STARLINK-3872,2022-049C,2026-06-18T17:17:46.524768,15.08834759,.0001619,53.1616,335.4691,86.3904,273.7273,0,U,52453,999,22736,.52405E-4,.546E-5,0
STARLINK-3888,2022-049D,2026-06-18T20:33:50.508576,15.08835460,.0001193,53.1598,334.8561,88.2843,271.8285,0,U,52454,999,22738,.32305E-4,.226E-5,0
STARLINK-3890,2022-049E,2026-06-18T18:49:14.161152,15.08836715,.0001114,53.1603,335.1837,95.2668,264.8450,0,U,52455,999,22737,.20572E-4,.4E-6,0
